STARLINK-30529          
1 58047U 23156V   26068.59312220 -.00001407  00000+0 -35399-4 0  9993
2 58047  53.1595 168.9287 0001070  83.7838 276.3285 15.30190563134969
TEVEL2-4                
1 63213U 25052D   26068.69417973  .00020990  00000+0  70363-3 0  9998
2 63213  97.4009 325.1237 0004733  95.3468 264.8313 15.30925813 54879
